ONEWEB-0012             
1 44057U 19010A   26193.63614435  .00000050  00000+0  96914-4 0  9991
2 44057  87.9075 223.7304 0001693  87.8895 272.2430 13.16594268354910
ONEWEB-0010             
1 44058U 19010B   26193.58549697  .00000039  00000+0  68498-4 0  9996
2 44058  87.9073 223.7370 0002291 101.9888 258.1500 13.16593560354956
ONEWEB-0008             
1 44059U 19010C   26193.53482914  .00000094  00000+0  21237-3 0  9990
2 44059  87.9077 223.7416 0002180  87.6271 272.5109 13.16593559355061
ONEWEB-0007             
1 44060U 19010D   26193.66613757 -.00000037  00000+0 -13118-3 0  9995
2 44060  87.8983 254.1449 0001961 106.4468 253.6878 13.15548356354725
ONEWEB-0006             
1 44061U 19010E   26193.67008848 -.00000051  00000+0 -17033-3 0  9992
2 44061  87.8992 254.1110 0002222  98.0787 262.0595 13.15550953354773
ONEWEB-0011             
1 44062U 19010F   26193.71445419  .00000035  00000+0  57831-4 0  9998
2 44062  87.9004 254.1111 0002254  96.8079 263.3308 13.15549733354775
ONEWEB-0013             
1 45131U 20008A   26193.53841497 -.00000528  00000+0 -15701-2 0  9998
2 45131  87.8490  47.7074 0001017  54.0793 306.0428 13.09456443309383
ONEWEB-0017             
1 45132U 20008B   26193.57952013 -.00000599  00000+0 -17531-2 0  9991
2 45132  87.8815  31.2079 0001981  92.0847 268.0507 13.10375339311272
ONEWEB-0020             
1 45133U 20008C   26193.54897944  .00000501  00000+0  13987-2 0  9992
2 45133  87.8819  31.2131 0001810  85.6460 274.4874 13.10369624311667
ONEWEB-0021             
1 45134U 20008D   26193.56422936 -.00000255  00000+0 -76767-3 0  9994
2 45134  87.8807  31.2244 0001766  93.3325 266.8004 13.10369415311978
ONEWEB-0023             
1 45136U 20008F   26193.57525634 -.00000598  00000+0 -17485-2 0  9997
2 45136  87.8819  31.2065 0001852  82.5092 277.6246 13.10371056311401
ONEWEB-0024             
1 45137U 20008G   26193.54741239  .00000531  00000+0  14851-2 0  9995
2 45137  87.8836  31.2070 0001889  90.5894 269.5450 13.10369963311564
ONEWEB-0025             
1 45138U 20008H   26193.54714088  .00000695  00000+0  19541-2 0  9990
2 45138  87.8825  31.1951 0001928  67.1417 292.9914 13.10369772311894
ONEWEB-0026             
1 45139U 20008J   26193.56539766  .00000450  00000+0  12350-2 0  9991
2 45139  87.8882  16.0139 0001974  90.9397 269.1957 13.11417862314431
ONEWEB-0028             
1 45140U 20008K   26193.54080223 -.00000520  00000+0 -15025-2 0  9992
2 45140  87.8879  16.0267 0001372  80.5733 279.5550 13.11417299311943
ONEWEB-0032             
1 45141U 20008L   26193.58135148 -.00000585  00000+0 -17118-2 0  9990
2 45141  87.8819  31.2098 0001494  72.9338 287.1953 13.10374426311620
ONEWEB-0033             
1 45142U 20008M   26193.55575781  .00000110  00000+0  27822-3 0  9995
2 45142  87.8812  31.2206 0002160  96.0978 264.0395 13.10368587311538
ONEWEB-0035             
1 45143U 20008N   26193.57626038 -.00000619  00000+0 -18097-2 0  9999
2 45143  87.8813  31.2101 0001833  90.4578 269.6759 13.10376379311267
ONEWEB-0036             
1 45144U 20008P   26193.55395539  .00000346  00000+0  95627-3 0  9997
2 45144  87.8824  31.2310 0001757  84.1417 275.9910 13.10370396311687
ONEWEB-0038             
1 45145U 20008Q   26193.49941388  .00000557  00000+0  15354-2 0  9992
2 45145  87.8894  16.0391 0001755 146.0014 214.1227 13.11416478313641
ONEWEB-0039             
1 45146U 20008R   26193.55915148 -.00000006  00000+0 -54674-4 0  9996
2 45146  87.8814  31.2111 0001268  75.5375 284.5892 13.10371484311483
ONEWEB-0040             
1 45147U 20008S   26193.55236059  .00000365  00000+0  10084-2 0  9995
2 45147  87.8811  31.2227 0001898  76.9620 283.1719 13.10369166311180
ONEWEB-0043             
1 45149U 20008U   26193.55420558  .00000255  00000+0  69363-3 0  9999
2 45149  87.8815  31.2111 0001349  78.9590 281.1689 13.10372016311505
ONEWEB-0044             
1 45150U 20008V   26193.58291528 -.00000564  00000+0 -16509-2 0  9995
2 45150  87.8828  31.2082 0001735  81.6933 278.4391 13.10376502311805
ONEWEB-0045             
1 45151U 20008W   26193.57048513  .00000571  00000+0  15765-2 0  9998
2 45151  87.8886  16.0067 0001737  91.3094 268.8233 13.11417039313736
ONEWEB-0047             
1 45152U 20008X   26193.57596772 -.00000653  00000+0 -19084-2 0  9995
2 45152  87.8822  31.2082 0001866  94.2741 265.8599 13.10371446311524
ONEWEB-0048             
1 45153U 20008Y   26193.57103230 -.00000474  00000+0 -13931-2 0  9995
2 45153  87.8810  31.2278 0001700  91.0563 269.0759 13.10372177311136
ONEWEB-0049             
1 45154U 20008Z   26193.57426471 -.00000586  00000+0 -17149-2 0  9990
2 45154  87.8812  31.2168 0001940  75.0605 285.0737 13.10371128311355
ONEWEB-0051             
1 45155U 20008AA  26193.56879214  .00000576  00000+0  15879-2 0  9992
2 45155  87.8887  16.0130 0001836  90.2058 269.9280 13.11418418314412
ONEWEB-0052             
1 45156U 20008AB  26193.59494066 -.00000043  00000+0 -16031-3 0  9997
2 45156  87.8826  31.2004 0001809  74.2788 285.8539 13.10377634311264
